NORAD_CAT_ID,OBJECT_NAME,OBJECT_TYPE,EPOCH,MEAN_MOTION,ECCENTRICITY,INCLINATION,RA_OF_ASC_NODE,ARG_OF_PERICENTER,MEAN_ANOMALY,BSTAR,MEAN_MOTION_DOT,MEAN_MOTION_DDOT,TLE_LINE0,TLE_LINE1,TLE_LINE2,SEMIMAJOR_AXIS,PERIOD,APOGEE,PERIGEE,DECAYED
50190.0,STARLINK-3268,PAYLOAD,2022-03-03 14:00:01,15.70380914,0.0005803999999999,53.2175,354.1108,304.896,53.3512,-0.0062704,-0.00719096,0.0,0 STARLINK-3268,1 50190U 21125AL  22062.58334491 -.00719096  00000-0 -62704-2 0  9990,2 50190  53.2175 354.1108 0005804 304.8960  53.3512 15.70380914  3706,6735.945,91.697,361.719,353.9,0.0
50190.0,STARLINK-3268,PAYLOAD,2022-03-03 22:00:00,15.69880042,0.0005086,53.2175,352.4685,299.9861,143.4868,-0.0065641,-0.00735371,0.0,0 STARLINK-3268,1 50190U 21125AL  22062.91667824 -.00735371  00000-0 -65641-2 0  9993,2 50190  53.2175 352.4685 0005086 299.9861 143.4868 15.69880042 14693,6737.377,91.727,362.669,355.816,0.0
50190.0,STARLINK-3268,PAYLOAD,2022-03-04 06:00:02,15.69362287,0.00031,53.2173,350.8283,256.8589,271.2975,-0.0065863999999999,-0.00722501,0.0,0 STARLINK-3268,1 50190U 21125AL  22063.25002315 -.00722501  00000-0 -65864-2 0  9997,2 50190  53.2173 350.8283 0003100 256.8589 271.2975 15.69362287 14753,6738.859,91.757,362.81300000000016,358.635,0.0
50190.0,STARLINK-3268,PAYLOAD,2022-03-04 14:00:01,15.688431,0.0001264,53.2176,349.1859,266.5987,345.5653,-0.0065621,-0.00705449,0.0,0 STARLINK-3268,1 50190U 21125AL  22063.58335648 -.00705449  00000-0 -65621-2 0  9994,2 50190  53.2176 349.1859 0001264 266.5987 345.5653 15.68843100  3703,6740.346,91.787,363.06300000000016,361.359,0.0
50190.0,STARLINK-3268,PAYLOAD,2022-03-04 22:00:00,15.6833793,9.56e-05,53.2177,347.5474,22.5258,312.9616,-0.0067791,-0.00712978,0.0,0 STARLINK-3268,1 50190U 21125AL  22063.91667824 -.00712978  00000-0 -67791-2 0  9990,2 50190  53.2177 347.5474 0000956  22.5258 312.9616 15.68337930  3691,6741.793000000002,91.817,364.302,363.013,0.0
50190.0,STARLINK-3268,PAYLOAD,2022-03-05 06:00:00,15.67827983,0.0001481,53.2174,345.9108,35.551,22.7127,-0.0069209,-0.00712882,0.0,0 STARLINK-3268,1 50190U 21125AL  22064.25001157 -.00712882  00000-0 -69209-2 0  9999,2 50190  53.2174 345.9108 0001481  35.5510  22.7127 15.67827983  3743,6743.255,91.847,366.11800000000005,364.121,0.0
50190.0,STARLINK-3268,PAYLOAD,2022-03-05 14:00:01,15.67318466,0.0001139,53.2175,344.2722,71.5297,68.9002,-0.007074,-0.00713456,0.0,0 STARLINK-3268,1 50190U 21125AL  22064.58334491 -.00713456  00000-0 -70740-2 0  9995,2 50190  53.2175 344.2722 0001139  71.5297  68.9002 15.67318466  3677,6744.715999999999,91.877,367.349,365.81300000000016,0.0
50190.0,STARLINK-3268,PAYLOAD,2022-03-05 16:00:00,15.67166102,0.0001168,53.2175,343.8648,64.9088,185.9769,-0.0067381,-0.00678281,0.0,0 STARLINK-3268,1 50190U 21125AL  22064.66667824 -.00678281  00000-0 -67381-2 0  9996,2 50190  53.2175 343.8648 0001168  64.9088 185.9769 15.67166102 14978,6745.153,91.886,367.806,366.23,0.0
50190.0,STARLINK-3268,PAYLOAD,2022-03-05 22:00:01,15.66809707,0.0001330999999999,53.2177,342.6375,62.1889,159.8576,-0.007247,-0.00715719,0.0,0 STARLINK-3268,1 50190U 21125AL  22064.91668981 -.00715719  00000-0 -72470-2 0  9992,2 50190  53.2177 342.6375 0001331  62.1889 159.8576 15.66809707  3715,6746.176,91.907,368.939,367.143,0.0
50190.0,STARLINK-3268,PAYLOAD,2022-03-06 06:00:00,15.66298922,0.000108,53.2173,341.0046,83.5446,219.3752,-0.0073734,-0.00713386,0.0,0 STARLINK-3268,1 50190U 21125AL  22065.25001157 -.00713386  00000-0 -73734-2 0  9998,2 50190  53.2173 341.0046 0001080  83.5446 219.3752 15.66298922 15066,6747.643,91.936,370.236,368.779,0.0
50190.0,STARLINK-3268,PAYLOAD,2022-03-06 14:00:01,15.65788272,9.77e-05,53.2173,339.3697,83.05799999999998,300.1906,-0.0075263,-0.00713272,0.0,0 STARLINK-3268,1 50190U 21125AL  22065.58334491 -.00713272  00000-0 -75263-2 0  9997,2 50190  53.2173 339.3697 0000977  83.0580 300.1906 15.65788272  3693,6749.11,91.966,371.634,370.315,0.0
50190.0,STARLINK-3268,PAYLOAD,2022-03-06 22:00:00,15.65280317,0.0001233,53.2174,337.7390000000001,58.1916,44.7691,-0.0077180999999999,-0.00716404,0.0,0 STARLINK-3268,1 50190U 21125AL  22065.91667824 -.00716404  00000-0 -77181-2 0  9994,2 50190  53.2174 337.7390 0001233  58.1916  44.7691 15.65280317  3697,6750.57,91.996,373.267,371.602,0.0
50190.0,STARLINK-3268,PAYLOAD,2022-03-07 06:00:00,15.64768888,0.0001217,53.2172,336.1095,73.6613,108.4001,-0.0078408,-0.00713281,0.0,0 STARLINK-3268,1 50190U 21125AL  22066.25001157 -.00713281  00000-0 -78408-2 0  9996,2 50190  53.2172 336.1095 0001217  73.6613 108.4001 15.64768888 15226,6752.041,92.026,374.727,373.084,0.0
50190.0,STARLINK-3268,PAYLOAD,2022-03-07 12:00:00,15.64387199,0.0001171,53.2176,334.8857,76.6867,74.2993,-0.0079787,-0.00714699,0.0,0 STARLINK-3268,1 50190U 21125AL  22066.50001157 -.00714699  00000-0 -79787-2 0  9999,2 50190  53.2176 334.8857 0001171  76.6867  74.2993 15.64387199  3740,6753.139,92.049,375.795,374.213,0.0
50190.0,STARLINK-3268,PAYLOAD,2022-03-07 22:00:00,15.637513,0.0001202,53.2177,332.8515,59.4019,279.023,-0.0082164,-0.00717364,0.0,0 STARLINK-3268,1 50190U 21125AL  22066.91667824 -.00717364  00000-0 -82164-2 0  9998,2 50190  53.2177 332.8515 0001202  59.4019 279.0230 15.63751300  3683,6754.969,92.086,377.646,376.022,0.0
50190.0,STARLINK-3268,PAYLOAD,2022-03-08 06:00:02,15.63240442,0.0001237,53.2171,331.2254,50.1528,5.5995,-0.0083552,-0.00715079,0.0,0 STARLINK-3268,1 50190U 21125AL  22067.25002315 -.00715079  00000-0 -83552-2 0  9997,2 50190  53.2171 331.2254 0001237  50.1528   5.5995 15.63240442 15370,6756.441,92.116,379.142,377.47,0.0
50190.0,STARLINK-3268,PAYLOAD,2022-03-08 14:00:01,15.62729529,0.0001232,53.2172,329.598,62.7288,69.61,-0.0085137,-0.00714184,0.0,0 STARLINK-3268,1 50190U 21125AL  22067.58334491 -.00714184  00000-0 -85137-2 0  9993,2 50190  53.2172 329.5980 0001232  62.7288  69.6100 15.62729529  3704,6757.9140000000025,92.146,380.611,378.946,0.0
50190.0,STARLINK-3268,PAYLOAD,2022-03-08 22:00:00,15.62218249,0.0001345,53.2174,327.975,63.2798,145.0959,-0.008657,-0.00711985,0.0,0 STARLINK-3268,1 50190U 21125AL  22067.91667824 -.00711985  00000-0 -86570-2 0  9997,2 50190  53.2174 327.9750 0001345  63.2798 145.0959 15.62218249  3691,6759.388000000001,92.177,382.162,380.344,0.0
50190.0,STARLINK-3268,PAYLOAD,2022-03-09 06:00:00,15.61711431,0.0001206,53.2171,326.3525,63.1772,220.6208,-0.0088882,-0.00716242,0.0,0 STARLINK-3268,1 50190U 21125AL  22068.25001157 -.00716242  00000-0 -88882-2 0  9995,2 50190  53.2171 326.3525 0001206  63.1772 220.6208 15.61711431 15531,6760.85,92.207,383.531,381.9,0.0
50190.0,STARLINK-3268,PAYLOAD,2022-03-09 14:00:01,15.61198679,0.0001034,53.2173,324.7288,75.7262,282.8859,-0.0090196,-0.00712736,0.0,0 STARLINK-3268,1 50190U 21125AL  22068.58334491 -.00712736  00000-0 -90196-2 0  9996,2 50190  53.2173 324.7288 0001034  75.7262 282.8859 15.61198679  3715,6762.33,92.237,384.895,383.496,0.0
50190.0,STARLINK-3268,PAYLOAD,2022-03-09 22:00:01,15.60691015,0.000126,53.2175,323.1099,55.6051,17.2689,-0.0092482,-0.00716277,0.0,0 STARLINK-3268,1 50190U 21125AL  22068.91668981 -.00716277  00000-0 -92482-2 0  9991,2 50190  53.2175 323.1099 0001260  55.6051  17.2689 15.60691015  3693,6763.797,92.267,386.514,384.81,0.0
50190.0,STARLINK-3268,PAYLOAD,2022-03-10 06:00:00,15.60038024,0.0001242,53.2167,321.4921,65.2722,81.2025,-0.0069018999999999,-0.00533292,0.0,0 STARLINK-3268,1 50190U 21125AL  22069.25001157 -.00533292  00000-0 -69019-2 0  9999,2 50190  53.2167 321.4921 0001242  65.2722  81.2025 15.60038024 15694,6765.684,92.305,388.389,386.709,0.0
50190.0,STARLINK-3268,PAYLOAD,2022-03-10 14:00:01,15.59671707,0.0001284999999999,53.2174,319.8709,62.5191,156.8492,-0.0096158999999999,-0.00716081,0.0,0 STARLINK-3268,1 50190U 21125AL  22069.58334491 -.00716081  00000-0 -96159-2 0  9999,2 50190  53.2174 319.8709 0001285  62.5191 156.8492 15.59671707  3664,6766.743,92.327,389.478,387.739,0.0
50190.0,STARLINK-3268,PAYLOAD,2022-03-10 20:00:01,15.59287062,0.0001431,53.2176,318.6591,56.538,127.1586,-0.0097145,-0.0071313,0.0,0 STARLINK-3268,1 50190U 21125AL  22069.83334491 -.00713130  00000-0 -97145-2 0  9995,2 50190  53.2176 318.6591 0001431  56.5380 127.1586 15.59287062 15786,6767.856,92.35,390.69,388.753,0.0
50190.0,STARLINK-3268,PAYLOAD,2022-03-10 22:00:01,15.59159504,0.0001311,53.2175,318.2556,59.176,232.6178,-0.0097625,-0.00713139,0.0,0 STARLINK-3268,1 50190U 21125AL  22069.91668981 -.00713139  00000-0 -97625-2 0  9990,2 50190  53.2175 318.2556 0001311  59.1760 232.6178 15.59159504  3695,6768.225,92.357,390.978,389.203,0.0
50190.0,STARLINK-3268,PAYLOAD,2022-03-11 14:00:01,15.58140017,0.0001152,53.2172,315.024,63.2837,11.3286,-0.010171,-0.00714532,0.0,0 STARLINK-3268,1 50190U 21125AL  22070.58334491 -.00714532  00000-0 -10171-1 0  9999,2 50190  53.2172 315.0240 0001152  63.2837  11.3286 15.58140017  3680,6771.177,92.418,393.822,392.262,0.0
50190.0,STARLINK-3268,PAYLOAD,2022-03-11 22:00:00,15.57629754,0.0001453999999999,53.2171,313.4125,53.6508,91.4823,-0.010351,-0.00713429,0.0,0 STARLINK-3268,1 50190U 21125AL  22070.91667824 -.00713429  00000-0 -10351-1 0  9999,2 50190  53.2171 313.4125 0001454  53.6508  91.4823 15.57629754 15954,6772.656,92.448,395.506,393.536,0.0
50190.0,STARLINK-3268,PAYLOAD,2022-03-12 14:00:01,15.56609164,0.0001196,53.2173,310.1881,74.7353,209.6047,-0.010735,-0.00712094,0.0,0 STARLINK-3268,1 50190U 21125AL  22071.58334491 -.00712094  00000-0 -10735-1 0  9997,2 50190  53.2173 310.1881 0001196  74.7353 209.6047 15.56609164  3707,6775.616,92.509,398.291,396.671,0.0
50190.0,STARLINK-3268,PAYLOAD,2022-03-12 22:00:00,15.56101042,0.0001232,53.2174,308.5806,58.7688,294.2529,-0.010988,-0.00714909,0.0,0 STARLINK-3268,1 50190U 21125AL  22071.91667824 -.00714909  00000-0 -10988-1 0  9990,2 50190  53.2174 308.5806 0001232  58.7688 294.2529 15.56101042 16105,6777.090999999999,92.539,399.791,398.121,0.0
